NORAD_CAT_ID,OBJECT_NAME,OBJECT_TYPE,EPOCH,MEAN_MOTION,ECCENTRICITY,INCLINATION,RA_OF_ASC_NODE,ARG_OF_PERICENTER,MEAN_ANOMALY,BSTAR,MEAN_MOTION_DOT,MEAN_MOTION_DDOT,TLE_LINE0,TLE_LINE1,TLE_LINE2,SEMIMAJOR_AXIS,PERIOD,APOGEE,PERIGEE,DECAYED
56453.0,STARLINK-5935,PAYLOAD,2024-02-15 23:23:41,14.98330211,0.0002863,69.9986,242.4381,272.2236,87.8595,-6.0735e-06,-1.65e-06,0.0,0 STARLINK-5935,1 56453U 23064F   24046.97478977 -.00000165  00000-0 -60735-5 0  9992,2 56453  69.9986 242.4381 0002863 272.2236  87.8595 14.98330211 42852,6950.192,96.107,574.047,570.067,0.0
56453.0,STARLINK-5935,PAYLOAD,2024-02-16 13:48:54,14.98331287,0.0002854,69.9987,240.9231,271.719,88.3642,-1.4257e-05,-2.63e-06,0.0,0 STARLINK-5935,1 56453U 23064F   24047.57562884 -.00000263  00000-0 -14257-4 0  9996,2 56453  69.9987 240.9231 0002854 271.7190  88.3642 14.98331287 42586,6950.189,96.107,574.037,570.07,0.0
56453.0,STARLINK-5935,PAYLOAD,2024-02-16 21:49:34,14.98330758,0.0002876,69.9987,240.0813,272.3503,87.7327,-2.0853e-05,-3.42e-06,0.0,0 STARLINK-5935,1 56453U 23064F   24047.90942909 -.00000342  00000-0 -20853-4 0  9990,2 56453  69.9987 240.0813 0002876 272.3503  87.7327 14.98330758 42633,6950.191,96.107,574.054,570.057,0.0
56453.0,STARLINK-5935,PAYLOAD,2024-02-17 05:50:14,14.98330499,0.0002867,69.9987,239.2398,271.0925,88.9906,1.9449e-06,-7e-07,0.0,0 STARLINK-5935,1 56453U 23064F   24048.24322839 -.00000070  00000-0  19449-5 0  9999,2 56453  69.9987 239.2398 0002867 271.0925  88.9906 14.98330499 43049,6950.191,96.107,574.049,570.064,0.0
56453.0,STARLINK-5935,PAYLOAD,2024-02-17 13:50:55,14.98331286,0.0002891,69.9986,238.3978,270.0554,90.0273,2.5012e-05,2.05e-06,0.0,0 STARLINK-5935,1 56453U 23064F   24048.57702683  .00000205  00000-0  25012-4 0  9995,2 56453  69.9986 238.3978 0002891 270.0554  90.0273 14.98331286 42737,6950.189,96.107,574.063,570.045,0.0
56453.0,STARLINK-5935,PAYLOAD,2024-02-17 21:51:35,14.98331266,0.0002902,69.9987,237.5563,269.9529,90.1298,2.2248e-05,1.72e-06,0.0,0 STARLINK-5935,1 56453U 23064F   24048.91082657  .00000172  00000-0  22248-4 0  9996,2 56453  69.9987 237.5563 0002902 269.9529  90.1298 14.98331266 42782,6950.189,96.107,574.071,570.037,0.0
56453.0,STARLINK-5935,PAYLOAD,2024-02-18 13:52:56,14.98326732,0.0002886,69.9987,235.8721,271.5415,88.5413,-1.2073e-05,-2.37e-06,0.0,0 STARLINK-5935,1 56453U 23064F   24049.57843046 -.00000237  00000-0 -12073-4 0  9995,2 56453  69.9987 235.8721 0002886 271.5415  88.5413 14.98326732 42886,6950.203,96.107,574.074,570.062,0.0
56453.0,STARLINK-5935,PAYLOAD,2024-02-18 21:53:36,14.98326708,0.000291,69.9986,235.0305,271.231,88.8515,-1.9211e-05,-3.22e-06,0.0,0 STARLINK-5935,1 56453U 23064F   24049.91223111 -.00000322  00000-0 -19211-4 0  9994,2 56453  69.9986 235.0305 0002910 271.2310  88.8515 14.98326708 42939,6950.203,96.107,574.091,570.046,0.0
56453.0,STARLINK-5935,PAYLOAD,2024-02-19 12:18:48,14.98331869,0.0002927,69.9986,233.5156,271.2311,88.8513,1.4241e-05,7.7e-07,0.0,0 STARLINK-5935,1 56453U 23064F   24050.51306700  .00000077  00000-0  14241-4 0  9991,2 56453  69.9986 233.5156 0002927 271.2311  88.8513 14.98331869 43387,6950.187,96.107,574.086,570.018,0.0
56453.0,STARLINK-5935,PAYLOAD,2024-02-19 13:54:57,14.98331284,0.0002932,69.9986,233.3473,271.2539,88.8284,7.8735e-06,1e-08,0.0,0 STARLINK-5935,1 56453U 23064F   24050.57982745  .00000001  00000-0  78735-5 0  9992,2 56453  69.9986 233.3473 0002932 271.2539  88.8284 14.98331284 43033,6950.189,96.107,574.092,570.016,0.0
56453.0,STARLINK-5935,PAYLOAD,2024-02-19 21:55:37,14.98332453,0.0002949,69.9987,232.5061,271.8797,88.2025,1.8918e-05,1.33e-06,0.0,0 STARLINK-5935,1 56453U 23064F   24050.91362605  .00000133  00000-0  18918-4 0  9999,2 56453  69.9987 232.5061 0002949 271.8797  88.2025 14.98332453 43089,6950.185,96.107,574.1,570.001,0.0
56453.0,STARLINK-5935,PAYLOAD,2024-02-20 12:20:49,14.98330466,0.0002977,69.9985,230.9912,271.9471,88.1347,6.2005e-05,6.47e-06,0.0,0 STARLINK-5935,1 56453U 23064F   24051.51446529  .00000647  00000-0  62005-4 0  9990,2 56453  69.9985 230.9912 0002977 271.9471  88.1347 14.98330466 43533,6950.191,96.107,574.126,569.987,0.0
56453.0,STARLINK-5935,PAYLOAD,2024-02-20 13:56:57,14.98330821,0.0002976,69.9985,230.8229,271.933,88.1488,6.4306e-05,6.74e-06,0.0,0 STARLINK-5935,1 56453U 23064F   24051.58122495  .00000674  00000-0  64306-4 0  9996,2 56453  69.9985 230.8229 0002976 271.9330  88.1488 14.98330821 43188,6950.19,96.107,574.124,569.987,0.0
56453.0,STARLINK-5935,PAYLOAD,2024-02-20 21:57:38,14.98332653,0.0002965,69.9986,229.9811,271.8032,88.2787,6.6093e-05,6.96e-06,0.0,0 STARLINK-5935,1 56453U 23064F   24051.91502330  .00000696  00000-0  66093-4 0  9992,2 56453  69.9986 229.9811 0002965 271.8032  88.2787 14.98332653 43235,6950.185,96.107,574.11,569.989,0.0
56453.0,STARLINK-5935,PAYLOAD,2024-02-21 12:22:50,14.98330224,0.0002907,69.9989,228.4662,272.1441,87.9385,-2.582e-05,-4.01e-06,0.0,0 STARLINK-5935,1 56453U 23064F   24052.51586686 -.00000401  00000-0 -25820-4 0  9994,2 56453  69.9989 228.4662 0002907 272.1441  87.9385 14.98330224 43681,6950.192,96.107,574.078,570.037,0.0
56453.0,STARLINK-5935,PAYLOAD,2024-02-21 13:58:58,14.98330027,0.0002911,69.9989,228.2979,272.1126,87.9699,-2.7448e-05,-4.2e-06,0.0,0 STARLINK-5935,1 56453U 23064F   24052.58262691 -.00000420  00000-0 -27448-4 0  9997,2 56453  69.9989 228.2979 0002911 272.1126  87.9699 14.98330027 43336,6950.193,96.107,574.081,570.035,0.0
56453.0,STARLINK-5935,PAYLOAD,2024-02-21 21:59:39,14.9832971,0.0002909,69.9991,227.4563,272.2725,87.8101,-1.763e-05,-3.03e-06,0.0,0 STARLINK-5935,1 56453U 23064F   24052.91642676 -.00000303  00000-0 -17630-4 0  9991,2 56453  69.9991 227.4563 0002909 272.2725  87.8101 14.98329710 43381,6950.194,96.107,574.081,570.037,0.0
56453.0,STARLINK-5935,PAYLOAD,2024-02-22 12:24:51,14.98333473,0.0002923,69.9991,225.9414,271.4856,88.5968,-9.9425e-06,-2.12e-06,0.0,0 STARLINK-5935,1 56453U 23064F   24053.51726337 -.00000212  00000-0 -99425-5 0  9997,2 56453  69.9991 225.9414 0002923 271.4856  88.5968 14.98333473 43831,6950.182,96.107,574.079,570.016,0.0
56453.0,STARLINK-5935,PAYLOAD,2024-02-22 14:00:59,14.98333355,0.0002927,69.9992,225.7731,271.4245,88.6579,-1.061e-05,-2.2e-06,0.0,0 STARLINK-5935,1 56453U 23064F   24053.58402328 -.00000220  00000-0 -10610-4 0  9992,2 56453  69.9992 225.7731 0002927 271.4245  88.6579 14.98333355 43487,6950.183,96.107,574.082,570.013,0.0
56453.0,STARLINK-5935,PAYLOAD,2024-02-22 20:25:31,14.98332941,0.0002939,69.9992,225.1001,270.0589,90.0233,-1.1481e-05,-2.3e-06,0.0,0 STARLINK-5935,1 56453U 23064F   24053.85106286 -.00000230  00000-0 -11481-4 0  9994,2 56453  69.9992 225.1001 0002939 270.0589  90.0233 14.98332941 43529,6950.184,96.107,574.091,570.006,0.0
56453.0,STARLINK-5935,PAYLOAD,2024-02-23 12:26:52,14.98328714,0.000297,69.9994,223.4168,270.013,90.0689,1.1378e-05,4.3e-07,0.0,0 STARLINK-5935,1 56453U 23064F   24054.51866416  .00000043  00000-0  11378-4 0  9991,2 56453  69.9994 223.4168 0002970 270.0130  90.0689 14.98328714 43981,6950.197,96.107,574.126,569.998,0.0
56453.0,STARLINK-5935,PAYLOAD,2024-02-23 14:03:00,14.98328492,0.0002981,69.9994,223.2485,270.1553,89.9264,7.8212e-06,0.0,0.0,0 STARLINK-5935,1 56453U 23064F   24054.58542446  .00000000  00000-0  78212-5 0  9996,2 56453  69.9994 223.2485 0002981 270.1553  89.9264 14.98328492 43634,6950.198,96.107,574.134,569.991,0.0
56453.0,STARLINK-5935,PAYLOAD,2024-02-23 22:03:40,14.98329486,0.0002954,69.9995,222.4067,268.3461,91.7359,1.9762e-05,1.43e-06,0.0,0 STARLINK-5935,1 56453U 23064F   24054.91922348  .00000143  00000-0  19762-4 0  9998,2 56453  69.9995 222.4067 0002954 268.3461  91.7359 14.98329486 43684,6950.194,96.107,574.113,570.006,0.0
56453.0,STARLINK-5935,PAYLOAD,2024-02-24 12:28:53,14.98327319,0.0003023,69.9994,220.8921,270.6505,89.4308,-2.9262e-05,-4.42e-06,0.0,0 STARLINK-5935,1 56453U 23064F   24055.52006649 -.00000442  00000-0 -29262-4 0  9993,2 56453  69.9994 220.8921 0003023 270.6505  89.4308 14.98327319 44139,6950.201,96.107,574.167,569.965,0.0
56453.0,STARLINK-5935,PAYLOAD,2024-02-24 14:05:01,14.98326906,0.000303,69.9994,220.7237,270.615,89.4662,-3.241e-05,-4.8e-06,0.0,0 STARLINK-5935,1 56453U 23064F   24055.58682692 -.00000480  00000-0 -32410-4 0  9998,2 56453  69.9994 220.7237 0003030 270.6150  89.4662 14.98326906 43786,6950.202,96.107,574.173,569.962,0.0
56453.0,STARLINK-5935,PAYLOAD,2024-02-24 20:29:33,14.98330416,0.0003013,69.9995,220.0505,270.9644,89.117,-1.2379e-05,-2.41e-06,0.0,0 STARLINK-5935,1 56453U 23064F   24055.85386432 -.00000241  00000-0 -12379-4 0  9998,2 56453  69.9995 220.0505 0003013 270.9644  89.1170 14.98330416 43827,6950.192,96.107,574.151,569.963,0.0
56453.0,STARLINK-5935,PAYLOAD,2024-02-25 12:30:54,14.98326716,0.0003022,69.9994,218.367,270.8237,89.2576,-2.6634e-05,-4.11e-06,0.0,0 STARLINK-5935,1 56453U 23064F   24056.52146795 -.00000411  00000-0 -26634-4 0  9997,2 56453  69.9994 218.3670 0003022 270.8237  89.2576 14.98326716 44286,6950.203,96.107,574.168,569.968,0.0
56453.0,STARLINK-5935,PAYLOAD,2024-02-25 14:07:02,14.983268,0.0003024,69.9995,218.1987,270.8221,89.2592,-2.4907e-05,-3.9e-06,0.0,0 STARLINK-5935,1 56453U 23064F   24056.58822797 -.00000390  00000-0 -24907-4 0  9993,2 56453  69.9995 218.1987 0003024 270.8221  89.2592 14.98326800 43934,6950.203,96.107,574.17,569.966,0.0
56453.0,STARLINK-5935,PAYLOAD,2024-02-25 20:31:34,14.98330566,0.0003009,69.9994,217.5251,270.2335,89.8479,1.8662e-05,1.3e-06,0.0,0 STARLINK-5935,1 56453U 23064F   24056.85526451  .00000130  00000-0  18662-4 0  9992,2 56453  69.9994 217.5251 0003009 270.2335  89.8479 14.98330566 43971,6950.191,96.107,574.147,569.965,0.0
56453.0,STARLINK-5935,PAYLOAD,2024-02-26 12:32:55,14.98330621,0.0003015,69.9992,215.8417,270.5244,89.5569,5.4071e-05,5.52e-06,0.0,0 STARLINK-5935,1 56453U 23064F   24057.52286346  .00000552  00000-0  54071-4 0  9995,2 56453  69.9992 215.8417 0003015 270.5244  89.5569 14.98330621 44434,6950.191,96.107,574.151,569.96,0.0
